GLOBALSTAR M075 [+]     
1 37192U 10054E   24100.65564549 -.00000113  00000+0 -53264-4 0  9993
2 37192  51.9957  61.5429 0000532  63.0149 108.2599 12.62272120621626
GLOBALSTAR M073 [+]     
1 37193U 10054F   24100.41827115 -.00000069  00000+0  19366-3 0  9992
2 37193  52.0078 335.7572 0000852  90.4292  82.0236 12.62263413623057
GLOBALSTAR M083 [+]     
1 37739U 11033A   24100.90094953 -.00000068  00000+0  19734-3 0  9994
2 37739  51.9851 283.6108 0000725  82.0866  65.2169 12.62268214592494
GLOBALSTAR M088 [+]     
1 37740U 11033B   24100.52837149 -.00000078  00000+0  14559-3 0  9997
2 37740  51.9722 190.6003 0000509  94.6406 279.3578 12.62266744587631
GLOBALSTAR M091 [+]     
1 37741U 11033C   24100.46219522 -.00000070  00000+0  19034-3 0  9995
2 37741  51.9982 153.5812 0000374  63.3091 309.9211 12.62261393588415
GLOBALSTAR M085 [+]     
1 37742U 11033D   24100.29057302 -.00000095  00000+0  49932-4 0  9991
2 37742  51.9850 105.5251 0000442  48.1182 324.3282 12.62269472588901
GLOBALSTAR M081 [+]     
1 37743U 11033E   24100.74774542 -.00000097  00000+0  37307-4 0  9999
2 37743  51.9941 106.6521 0000570  61.0344 110.0375 12.62264016589487
GLOBALSTAR M089 [+]     
1 37744U 11033F   24100.39312861 -.00000109  00000+0 -31630-4 0  9991
2 37744  51.9938  62.0410 0000618 104.8836  73.1386 12.62261718589905
